KUZGTU 1 (RS47S)        
1 57217U 23091AV  26200.86085730  .00006443  00000+0  22068-3 0  9991
2 57217  97.5041 265.6867 0009579 349.1185  10.9847 15.30529960169376
SONATE-2                
1 59112U 24043Q   26200.40440229  .00027038  00000+0  32202-3 0  9997
2 59112  97.5568 352.8429 0006650  92.9788 267.2230 15.61057540132915
MESAT1                  
1 60209U 24125G   26200.84228135  .00046924  00000+0  44263-3 0  9990
2 60209  97.2240  59.1509 0010720  98.1214 262.1264 15.66851791114678
OOV-CUBE (TUBSAT-30)    
1 60240U 24128F   26200.72484720  .00000867  00000+0  79050-4 0  9998
2 60240  61.9942 112.1057 0040527 141.0093 219.3932 15.02883931111000
COLIBRI-S (RS67S)       
1 61746U 24199M   26200.82708463  .00013325  00000+0  24771-3 0  9994
2 61746  97.2938  75.0010 0009457 146.8048 213.3798 15.48973290142461
HORS 3 (RS81S)          
1 61753U 24199U   26200.82096330  .00024281  00000+0  33539-3 0  9990
2 61753  97.2921  77.3569 0007633 141.9463 218.2333 15.57127863142631
HORS 4 (RS82S)          
1 61754U 24199V   26200.86629503  .00034910  00000+0  38918-3 0  9995
2 61754  97.2862  78.8363 0007406 135.5508 224.6346 15.62715095142744
SIT-2086                
1 61764U 24199AF  26200.83886733  .00024025  00000+0  35560-3 0  9999
2 61764  97.2880  77.7380 0008539 131.0919 229.1074 15.55242692139505
HYPERVIEW 1G (RS66S)    
1 61772U 24199AP  26200.84661905  .00188486  00000+0  72006-3 0  9999
2 61772  97.2784  82.4646 0008244 139.7698 220.4185 15.86963099139835
ALTAIR (RS65S)          
1 61779U 24199AW  26200.85272324  .00006071  00000+0  16654-3 0  9996
2 61779  97.2985  69.9937 0012560 179.5242 180.6017 15.37565165142137
ASRTU-1 (AO-123)        
1 61781U 24199AY  26200.87065396  .00004138  00000+0  11970-3 0  9998
2 61781  97.2956  69.2491 0013534 183.4204 176.6950 15.36093106138945
SAMSAT-IONOSPHERE (RS7*)
1 61784U 24199BB  26200.85686900  .00030699  00000+0  37372-3 0  9994
2 61784  97.2885  77.5733 0009700 145.9116 214.2766 15.60423783142657
RTU MIREA 1 (RS51S)     
1 61785U 24199BC  26200.86476384  .00042476  00000+0  43749-3 0  9990
2 61785  97.2870  78.6003 0009740 141.3257 218.8702 15.64676770139571
TEVEL2-4                
1 63213U 25052D   26200.64250594  .00010253  00000+0  29789-3 0  9992
2 63213  97.3853  97.1061 0003170  43.0133 317.1357 15.35661719 75093
TEVEL2-5                
1 63214U 25052E   26200.60165345  .00010499  00000+0  30684-3 0  9996
2 63214  97.3852  97.0033 0003191  45.3967 314.7537 15.35471509 75082
TEVEL2-6                
1 63215U 25052F   26200.67989981  .00009969  00000+0  29179-3 0  9991
2 63215  97.3856  97.0665 0003266  47.0245 313.1272 15.35437175 75090
TEVEL2-1                
1 63217U 25052H   26200.45987699  .00009640  00000+0  28744-3 0  9996
2 63217  97.3828  96.4310 0003918  51.1832 308.9761 15.34859218 75048
TEVEL2-3                
1 63218U 25052J   26200.25768580  .00009570  00000+0  28485-3 0  9995
2 63218  97.3840  96.2545 0003742  52.6845 307.4739 15.34918835 75013
TEVEL2-2                
1 63219U 25052K   26200.78594407  .00009894  00000+0  29478-3 0  9991
2 63219  97.3829  96.7604 0003943  50.4643 309.6948 15.34877493 75095
OTP-2                   
1 63235U 25052AB  26200.26460893  .00003412  00000+0  14216-3 0  9997
2 63235  97.3824  92.2179 0007980  59.8339 300.3688 15.24366519 74758
TEVEL2-9                
1 63237U 25052AD  26200.21882993  .00008721  00000+0  27749-3 0  9996
2 63237  97.3893  95.4966 0007321  45.4826 314.7014 15.32806992 74931
TEVEL2-7                
1 63238U 25052AE  26200.46202924  .00008616  00000+0  27686-3 0  9997
2 63238  97.3895  95.6412 0007412  45.1189 315.0654 15.32492190 74960
TEVEL2-8                
1 63239U 25052AF  26200.20940773  .00008420  00000+0  27078-3 0  9999
2 63239  97.3897  95.3655 0007477  46.6510 313.5354 15.32473641 74920
INNOSAT 16 (RS92S7)     
1 64878U 25155C   26200.86216443  .00003161  00000+0  12648-3 0  9999
2 64878  97.4588 167.8975 0012363  74.4910 285.7692 15.25768007 85653
GEOSCAN 6 (RS92S6)      
1 64879U 25155D   26200.87275553  .00006114  00000+0  20834-3 0  9995
2 64879  97.4580 169.5689 0009788  69.0095 291.2192 15.30709317 85762
GEOSCAN 1 (RS92S1)      
1 64880U 25155E   26200.86182422  .00006488  00000+0  21652-3 0  9991
2 64880  97.4576 169.7356 0009704  69.2931 290.9350 15.31360861 85772
239ALFEROV (RS61S)      
1 64881U 25155F   26200.84785795  .00008935  00000+0  27585-3 0  9992
2 64881  97.4574 170.3975 0009419  69.2017 291.0234 15.33750212 85817
GEOSCAN 2 (RS92S2)      
1 64890U 25155Q   26200.84991301  .00006428  00000+0  21291-3 0  9997
2 64890  97.4574 169.8887 0008780  59.5480 300.6628 15.31618329 85788
GEOSCAN 5 (RS92S5)      
1 64891U 25155R   26200.89548301  .00008205  00000+0  25120-3 0  9991
2 64891  97.4567 170.5953 0008472  74.0139 286.2036 15.34053779 85838
GEOSCAN 4 (RS92S4)      
1 64892U 25155S   26200.87622884  .00009101  00000+0  27682-3 0  9990
2 64892  97.4572 170.6343 0008373  74.5039 285.7127 15.34224530 85833
