OBJECT_NAME,OBJECT_ID,EPOCH,MEAN_MOTION,ECCENTRICITY,INCLINATION,RA_OF_ASC_NODE,ARG_OF_PERICENTER,MEAN_ANOMALY,EPHEMERIS_TYPE,CLASSIFICATION_TYPE,NORAD_CAT_ID,ELEMENT_SET_NO,REV_AT_EPOCH,BSTAR,MEAN_MOTION_DOT,MEAN_MOTION_DDOT
KUZGTU 1 (RS47S),2023-091AV,2026-07-19T20:39:38.070720,15.30529960,.0009579,97.5041,265.6867,349.1185,10.9847,0,U,57217,999,16937,.22068E-3,.6443E-4,0
SONATE-2,2024-043Q,2026-07-19T09:42:20.357856,15.61057540,.00066507,97.5568,352.8429,92.9788,267.2230,0,U,59112,999,13291,.32201618E-3,.27038E-3,0
MESAT1,2024-125G,2026-07-19T20:12:53.108640,15.66851791,.001072,97.2240,59.1509,98.1214,262.1264,0,U,60209,999,11467,.44263E-3,.46924E-3,0
OOV-CUBE (TUBSAT-30),2024-128F,2026-07-19T17:23:46.798080,15.02883931,.0040527,61.9942,112.1057,141.0093,219.3932,0,U,60240,999,11100,.7905E-4,.867E-5,0
COLIBRI-S (RS67S),2024-199M,2026-07-19T19:51:00.112032,15.48973290,.0009457,97.2938,75.0010,146.8048,213.3798,0,U,61746,999,14246,.24771E-3,.13325E-3,0
HORS 3 (RS81S),2024-199U,2026-07-19T19:42:11.229120,15.57127863,.0007633,97.2921,77.3569,141.9463,218.2333,0,U,61753,999,14263,.33539E-3,.24281E-3,0
HORS 4 (RS82S),2024-199V,2026-07-19T20:47:27.890592,15.62715095,.0007406,97.2862,78.8363,135.5508,224.6346,0,U,61754,999,14274,.38918E-3,.3491E-3,0
SIT-2086,2024-199AF,2026-07-19T20:07:58.137312,15.55242692,.0008539,97.2880,77.7380,131.0919,229.1074,0,U,61764,999,13950,.3556E-3,.24025E-3,0
HYPERVIEW 1G (RS66S),2024-199AP,2026-07-19T20:19:07.885920,15.86963099,.0008244,97.2784,82.4646,139.7698,220.4185,0,U,61772,999,13983,.72006E-3,.188486E-2,0
ALTAIR (RS65S),2024-199AW,2026-07-19T20:27:55.287936,15.37565165,.001256,97.2985,69.9937,179.5242,180.6017,0,U,61779,999,14213,.16654E-3,.6071E-4,0
ASRTU-1 (AO-123),2024-199AY,2026-07-19T20:53:44.502144,15.36093106,.0013534,97.2956,69.2491,183.4204,176.6950,0,U,61781,999,13894,.1197E-3,.4138E-4,0
SAMSAT-IONOSPHERE (RS75S),2024-199BB,2026-07-19T20:33:53.481600,15.60423783,.00097,97.2885,77.5733,145.9116,214.2766,0,U,61784,999,14265,.37372E-3,.30699E-3,0
RTU MIREA 1 (RS51S),2024-199BC,2026-07-19T20:45:15.595776,15.64676770,.000974,97.2870,78.6003,141.3257,218.8702,0,U,61785,999,13957,.43749E-3,.42476E-3,0
TEVEL2-4,2025-052D,2026-07-19T15:25:12.513216,15.35661719,.000317,97.3853,97.1061,43.0133,317.1357,0,U,63213,999,7509,.29789E-3,.10253E-3,0
TEVEL2-5,2025-052E,2026-07-19T14:26:22.858080,15.35471509,.0003191,97.3852,97.0033,45.3967,314.7537,0,U,63214,999,7508,.30684E-3,.10499E-3,0
TEVEL2-6,2025-052F,2026-07-19T16:19:03.343584,15.35437175,.0003266,97.3856,97.0665,47.0245,313.1272,0,U,63215,999,7509,.29179E-3,.9969E-4,0
TEVEL2-1,2025-052H,2026-07-19T11:02:13.371936,15.34859218,.00039185,97.3828,96.4310,51.1832,308.9761,0,U,63217,999,7504,.287441E-3,.964E-4,0
TEVEL2-3,2025-052J,2026-07-19T06:11:04.053120,15.34918835,.00037425,97.3840,96.2545,52.6845,307.4739,0,U,63218,999,7501,.28484641E-3,.957E-4,0
TEVEL2-2,2025-052K,2026-07-19T18:51:45.567648,15.34877493,.0003943,97.3829,96.7604,50.4643,309.6948,0,U,63219,999,7509,.29478E-3,.9894E-4,0
OTP-2,2025-052AB,2026-07-19T06:21:02.211552,15.24366519,.00079805,97.3824,92.2179,59.8339,300.3688,0,U,63235,999,7475,.14216323E-3,.3412E-4,0
TEVEL2-9,2025-052AD,2026-07-19T05:15:06.905952,15.32806992,.00073214,97.3893,95.4966,45.4826,314.7014,0,U,63237,999,7493,.27748568E-3,.8721E-4,0
TEVEL2-7,2025-052AE,2026-07-19T11:05:19.326336,15.32492190,.00074123,97.3895,95.6412,45.1189,315.0654,0,U,63238,999,7496,.27686013E-3,.8616E-4,0
TEVEL2-8,2025-052AF,2026-07-19T05:01:32.827872,15.32473641,.00074778,97.3897,95.3655,46.6510,313.5354,0,U,63239,999,7492,.27077917E-3,.842E-4,0
INNOSAT 16 (RS92S7),2025-155C,2026-07-19T20:41:31.006752,15.25768007,.0012363,97.4588,167.8975,74.4910,285.7692,0,U,64878,999,8565,.12648E-3,.3161E-4,0
GEOSCAN 6 (RS92S6),2025-155D,2026-07-19T20:56:46.077792,15.30709317,.0009788,97.4580,169.5689,69.0095,291.2192,0,U,64879,999,8576,.20834E-3,.6114E-4,0
GEOSCAN 1 (RS92S1),2025-155E,2026-07-19T20:41:01.612608,15.31360861,.0009704,97.4576,169.7356,69.2931,290.9350,0,U,64880,999,8577,.21652E-3,.6488E-4,0
239ALFEROV (RS61S),2025-155F,2026-07-19T20:20:54.926880,15.33750212,.0009419,97.4574,170.3975,69.2017,291.0234,0,U,64881,999,8581,.27585E-3,.8935E-4,0
GEOSCAN 2 (RS92S2),2025-155Q,2026-07-19T20:23:52.484064,15.31618329,.000878,97.4574,169.8887,59.5480,300.6628,0,U,64890,999,8578,.21291E-3,.6428E-4,0
GEOSCAN 5 (RS92S5),2025-155R,2026-07-19T21:29:29.732064,15.34053779,.0008472,97.4567,170.5953,74.0139,286.2036,0,U,64891,999,8583,.2512E-3,.8205E-4,0
GEOSCAN 4 (RS92S4),2025-155S,2026-07-19T21:01:46.171776,15.34224530,.0008373,97.4572,170.6343,74.5039,285.7127,0,U,64892,999,8583,.27682E-3,.9101E-4,0
